#aV2012  6  5  0  0  0.00000000     288 DD+AD WGS84 FIT  NGA
## 1691 172800.00000000   300.00000000 56083 0.0000000000000
+   31     1  2  3  4  5  6  7  8  9 10 11 12 13 14 15 16 17
+         18 19 20 21 22 23 25 26 27 28 29 30 31 32  0  0  0
+          0  0  0  0  0  0  0  0  0  0  0  0  0  0  0  0  0
+          0  0  0  0  0  0  0  0  0  0  0  0  0  0  0  0  0
+          0  0  0  0  0  0  0  0  0  0  0  0  0  0  0  0  0
++         2  2  2  2  2  2  2  2  2  2  2  2  2  2  2  2  2
++         2  2  2  2  2  2  2  2  2  2  2  2  2  2  2  0  0
++         0  0  0  0  0  0  0  0  0  0  0  0  0  0  0  0  0
++         0  0  0  0  0  0  0  0  0  0  0  0  0  0  0  0  0
++         0  0  0  0  0  0  0  0  0  0  0  0  0  0  0  0  0
%c cc cc ccc ccc cccc cccc cccc cccc ccccc ccccc ccccc ccccc
%c cc cc ccc ccc cccc cccc cccc cccc ccccc ccccc ccccc ccccc
%f  0.0000000  0.000000000  0.00000000000  0.000000000000000
%f  0.0000000  0.000000000  0.00000000000  0.000000000000000
%i    0    0    0    0      0      0      0      0         0
%i    0    0    0    0      0      0      0      0         0
/*      NGA, ST. LOUIS,MO.                                  
/*   EPHEMERIS COMPUTED FROM  1 DAYS OF DATA
/*   EPOCHA SMOOTHER  
/* CCCCCCCCCCCCCCCCCCCCCCCCCCCCCCCCCCCCCCCCCCCCCCCCCCCCCCCCC
*  2012  6  5 19 50  0.00000000                                                 
P  1   -625.055990 -15627.895376 -21468.819790    260.009578                    
V  1  26045.381761  -8044.140636   5133.315329      0.017617                    
P  2 -20803.050092  13745.153714   8508.618089    392.678008                    
V  2 -11403.132069     83.325540 -28958.487032      0.012675                    
P  3  10316.696871 -21080.766143  11697.859768     58.480892                    
V  3   2251.667228  15961.870928  26023.363554      0.050737                    
P  4 -25908.242787   5752.726792  -3448.029829    205.412005                    
V  4   2858.705880  -4321.662954 -30617.798131      0.114930                    
P  5 -10076.895491  11666.533251  21607.758057   -322.474216                    
V  5 -20524.842313 -18332.327710    450.190097     -0.037245                    
P  6  13792.821962 -16854.834192  15114.654120     20.810937                    
V  6   -266.396269  19346.041679  22299.683951     -0.031878                    
P  7 -15092.868003  -9411.310883  19827.054474     87.868866                    
V  7  23651.171400  -8189.458755  13875.895700      0.035747                    
P  8 -24667.139755  -1590.473677  10537.555716      1.372502                    
V  8  12532.972788  -3742.581152  28397.465469      0.001106                    
P  9  -4200.467233  16240.751895 -21162.533133    163.094302                    
V  9 -24380.060491   7570.448856  10900.272210      0.025559                    
P 10 -21308.289236  -5159.800418  15014.146270    -40.477581                    
V 10 -12652.947543 -14853.397482 -22286.921986     -0.012310                    
P 11   4036.108671 -19792.324876 -17485.758498   -268.618808                    
V 11  19774.927080  -9783.376767  16315.725277     -0.038398                    
P 12   6509.153661  20588.279505 -15608.357071     72.927356                    
V 12 -15266.032307 -12504.645416 -22681.342960      0.020869                    
P 13  -7633.526579 -17071.582849  18674.937895    202.883788                    
V 13   8256.759213 -22554.467487 -17209.292890     -0.023784                    
P 14  15254.423557   -716.835352 -21533.204840    204.471094                    
V 14  -7063.404496  26827.731962  -5989.534757      0.008533                    
P 15  -3081.536516  26140.082136  -2550.802181    -91.580918                    
V 15  -4011.990798   2555.260373  31328.086367     -0.001756                    
P 16  10486.657000 -10403.616590  22075.198088   -237.252914                    
V 16  20031.701304  19514.216453     -9.730917     -0.012132                    
P 17 -15179.247953  -1155.495369 -21570.111546    123.384093                    
V 17   6397.001432 -27085.271989  -3256.012518     -0.028498                    
P 18  20276.616521  17393.713170  -1205.537548    199.135694                    
V 18   -917.687989   3884.087497  30771.598605      0.018094                    
P 19   7104.526750 -25347.610233   -962.707293   -272.357093                    
V 19   3385.479366   -193.369307  31976.934549     -0.037087                    
P 20 -10955.820959 -20941.107707 -12343.157056     63.715559                    
V 20  13848.243067   7527.645221 -25320.269003      0.002088                    
P 21  19399.986651   7393.966774  17369.524070   -228.341127                    
V 21 -19464.245812   8042.511410  18278.196145     -0.024355                    
P 22  21755.190377   5825.931319 -13993.080391    144.277939                    
V 22  11358.570766  14403.680102  23220.941683      0.003611                    
P 23  -1689.134028 -24338.840297  10054.075607    198.258183                    
V 23   5574.655476 -11905.417690 -28352.389483     -0.037554                    
P 25  17770.508895  19387.664388  -3988.263905     34.952553                    
V 25  -5378.959118  -1477.536492 -31362.768824      0.005532                    
P 26 -12523.136495  21275.969180   8663.968529   -382.392286                    
V 26   1233.181985 -12130.566192  29835.974203      0.102123                    
P 27 -10100.550117  16222.377526 -17612.844999    395.565386                    
V 27 -22887.203863   6542.638276  18996.137481      0.040394                    
P 28 -21330.460664  -9807.001135 -12076.213356    151.660850                    
V 28 -10095.865894 -12684.339758  26697.950201      0.040783                    
P 29   6464.373512  20050.041355  16267.753828    320.394217                    
V 29  -6883.817295  19403.196537 -21219.397308      0.038707                    
P 30  18124.616453  -3023.536427  18819.054429   -220.208226                    
V 30  19000.044080  15788.590687 -15465.668953     -0.211997                    
P 31  25750.150024  -6862.333229  -1370.401620    249.863696                    
V 31  -1291.339877   2468.498267 -31964.428434      0.040104                    
P 32  -2056.216480 -20177.461289 -17183.539984   -451.335216                    
V 32  16245.643515  15029.370971 -18885.404210     -0.039825                    
EOF
